#aV2021  2 17  0  0  0.00000000     288 DD+AD WGS84 FIT  NGA
## 2145 259200.00000000   300.00000000 59262 0.0000000000000
+   32     1  2  3  4  5  6  7  8  9 10 11 12 13 14 15 16 17
+         18 19 20 21 22 23 24 25 26 27 28 29 30 31 32  0  0
+          0  0  0  0  0  0  0  0  0  0  0  0  0  0  0  0  0
+          0  0  0  0  0  0  0  0  0  0  0  0  0  0  0  0  0
+          0  0  0  0  0  0  0  0  0  0  0  0  0  0  0  0  0
++         2  2  2  2  2  2  2  2  2  2  2  2  2  2  2  2  2
++         2  2  2  2  2  2  2  2  2  2  2  2  2  2  2  0  0
++         0  0  0  0  0  0  0  0  0  0  0  0  0  0  0  0  0
++         0  0  0  0  0  0  0  0  0  0  0  0  0  0  0  0  0
++         0  0  0  0  0  0  0  0  0  0  0  0  0  0  0  0  0
%c cc cc ccc ccc cccc cccc cccc cccc ccccc ccccc ccccc ccccc
%c cc cc ccc ccc cccc cccc cccc cccc ccccc ccccc ccccc ccccc
%f  0.0000000  0.000000000  0.00000000000  0.000000000000000
%f  0.0000000  0.000000000  0.00000000000  0.000000000000000
%i    0    0    0    0      0      0      0      0         0
%i    0    0    0    0      0      0      0      0         0
/*      NGA, ST. LOUIS,MO.                                  
/*   EPHEMERIS COMPUTED FROM 2 DAYS OF DATA                 
/*   EPOCHA v5 SMOOTHER                                     
/*   G2139 IERS2010 SATAF SATAPC                            
*  2021  2 17  7 50  0.00000000
P  1 -10097.412939  19824.277898 -14485.291082    759.490999                    
V  1 -15437.251613   9553.055513  24571.729467     -0.078178                    
P  2  21701.072418 -13713.932532  -6196.865318   -577.710865                    
V  2  -4629.680823   7896.308074 -30438.684319     -0.039212                    
P  3    222.429953  15942.359819 -21337.678366    -85.250472                    
V  3 -25076.526771  -9659.751387  -7404.180464     -0.101880                    
P  4  -2291.904149  25484.293847  -7010.821194   -180.790274                    
V  4  -3625.450055  -8596.006407 -30091.899615     -0.026181                    
P  5  18631.334488  -6496.837894  17716.941615    -33.922298                    
V  5  20773.542088   9402.717750 -18061.893087     -0.010420                    
P  6  20268.010863  -1289.306180 -17081.732588     -2.563387                    
V  6 -16371.048674  14372.873724 -20379.637486      0.011813                    
P  7   5026.091489  15314.907687  21372.427020     61.637776                    
V  7 -21556.794433  15398.706006  -6546.979680      0.132456                    
P  8  -6234.959759  21682.036709  13775.651437    -10.623302                    
V  8  -4867.674149 -17044.942950  24924.750912     -0.013685                    
P  9   7005.014185  25225.897307   4334.951519   -323.657035                    
V  9  -2132.164485   5985.255399 -30967.483186     -0.035350                    
P 10 -23736.711951 -11880.271569   3047.502388    -63.272207                    
V 10   4305.549533   -764.549192  31436.473349     -0.081820                    
P 11  -9576.617781  24933.968212  -2118.440055    -22.303083                    
V 11  -4455.084371    340.594292  30304.388385      0.106162                    
P 12   5253.528862 -14135.309642 -22116.396098     -2.268999                    
V 12  24626.540762  12099.236919  -1756.100187     -0.052988                    
P 13  12978.262288 -13025.604904  18985.106160     98.164803                    
V 13   1514.998032  24406.155696  15717.291059      0.043229                    
P 14  22427.214643  13610.803887   4179.789308     97.374639                    
V 14  -6020.986392    343.155804  31100.482845      0.023626                    
P 15   4113.081066 -22532.064618  12781.543059   -168.846046                    
V 15   7490.888550  15655.483601  24866.538278      0.025778                    
P 16 -20352.525512   2377.438914  16912.433385   -281.367207                    
V 16 -18691.959163 -11141.093732 -20185.152000     -0.056964                    
P 17  13067.276990  14051.440030 -17933.977201    395.609806                    
V 17    486.542954  23631.695936  18426.874219      0.065184                    
P 18  -7303.611319 -13304.791754  21789.202744    347.652801                    
V 18  22362.018158 -16283.432637  -2502.615570      0.016708                    
P 19  14701.776374   5516.212252 -21717.015175    -37.397023                    
V 19    445.372886  26833.514079   7122.882376      0.050026                    
P 20 -16881.522575 -14966.033304  14173.763763    524.655410                    
V 20  18112.928820   1950.148748  23271.299547     -0.001894                    
P 21 -16046.231680  19852.174867  -5723.201731     96.275647                    
V 21  -8421.657985   3053.016117  30784.325309      0.031747                    
P 22  -9276.592911  13296.183568 -20815.987031   -677.620794                    
V 22 -25645.147679  -8554.296983   6079.231658      0.075012                    
P 23 -17007.820059 -15928.666282  12760.039320    118.396192                    
V 23  15949.240914   3682.757437  25771.259277      0.000943                    
P 24  13042.485171 -20972.313950  -9468.774936      2.224115                    
V 24  11192.572331  -5264.858204  28173.822262     -0.004797                    
P 25 -10481.613285 -17426.785947 -17487.530524     82.167524                    
V 25  20544.626346   6803.962214 -19107.452785      0.076275                    
P 26 -25302.756381  -3034.223882   7905.372574     46.102670                    
V 26  -8463.675227  -6181.220371 -29005.826078      0.054801                    
P 27 -12808.944110   9935.138689  20802.158128    -77.934515                    
V 27  -4567.116650 -26444.026044  10098.833116     -0.074140                    
P 28  22814.108974  13331.070619   1850.080200    614.370317                    
V 28  -2660.540639   1468.569107  32060.938099     -0.054195                    
P 29  -4635.626682 -25739.670311   4466.342762   -296.485294                    
V 29   1675.943493  -5834.904807 -31639.305850     -0.070334                    
P 30  15922.118180   6784.779737  20248.101807   -385.996237                    
V 30 -20055.387472  16007.173444  10206.418512     -0.057579                    
P 31 -22018.031179   3097.631129 -14947.813507   -100.584745                    
V 31  13950.631244 -12539.689142 -22812.104689     -0.022766                    
P 32 -14821.488529 -12122.020727 -18380.693381     19.015097                    
V 32  -1888.230709 -23459.343618  16738.882485      0.012472                    
EOF
